FENGYUN 1C DEB          
1 29901U 99025GX  17346.46062123  .00000089  00000-0  17303-3 0  9995
2 29901  98.7399 173.2004 0383356 346.6067  39.9918 13.31797690530198
